TJS-9                   
1 50574U 21135A   26161.29578922 -.00000281  00000+0  00000+0 0  9993
2 50574   0.0533 254.0972 0004619 155.1863  93.0710  1.00270942 16363
STARLINK-3323           
1 50804U 22001B   26161.16006671 -.00000109  00000+0  11261-4 0  9990
2 50804  53.1619 103.9507 0001304  91.2400 268.8741 15.08837611244504
STARLINK-3333           
1 50805U 22001C   26161.15638696  .00000695  00000+0  61750-4 0  9995
2 50805  53.1624 103.9684 0001379  82.6427 277.4721 15.08833740244505
STARLINK-3335           
1 50806U 22001D   26161.15270862 -.00001786  00000+0 -94147-4 0  9993
2 50806  53.1603 103.9847 0001251  84.8422 275.2712 15.08842176244501
STARLINK-3355           
1 50808U 22001F   26161.14534878  .00006840  00000+0  44785-3 0  9990
2 50808  53.1626 104.0187 0001547  88.6657 271.4511 15.08805415244507
STARLINK-3232           
1 50809U 22001G   26161.14903094 -.00000049  00000+0  14999-4 0  9992
2 50809  53.1623 103.9996 0001412  81.0022 279.1130 15.08831243244505
STARLINK-3338           
1 50812U 22001K   26161.10855858 -.00000183  00000+0  65918-5 0  9993
2 50812  53.1645 104.2892 0001352  83.5354 276.5792 15.08833995244499
STARLINK-3349           
1 50813U 22001L   26160.98085307  .00053292  00000+0  11088-2 0  9997
2 50813  53.2030  48.4023 0002096 126.4841 233.6360 15.45130686245289
STARLINK-3324           
1 50814U 22001M   26161.17754618 -.00000445  00000+0 -98635-5 0  9998
2 50814  53.1627 113.8704 0001298  79.2740 280.8397 15.08836762244370
STARLINK-3234           
1 50815U 22001N   26161.18859278  .00001255  00000+0  96992-4 0  9999
2 50815  53.1616 113.8204 0001258  80.8516 279.2618 15.08823282244370
STARLINK-3342           
1 50816U 22001P   26161.14254177  .00024409  00000+0  12206-2 0  9993
2 50816  53.2138 108.3060 0003724  85.6230 274.5192 15.17323485244449
STARLINK-3341           
1 50817U 22001Q   26161.18491904  .00000959  00000+0  78327-4 0  9991
2 50817  53.1621 113.8335 0001632  59.4443 300.6709 15.08844511244378
STARLINK-3336           
1 50818U 22001R   26161.16651200 -.00001031  00000+0 -46710-4 0  9992
2 50818  53.1627 113.9243 0001437  80.9780 279.1375 15.08834111244363
STARLINK-3327           
1 50819U 22001S   26161.17386553  .00000155  00000+0  27842-4 0  9999
2 50819  53.1635 113.8918 0001376  90.7402 269.3747 15.08833656244371
STARLINK-3339           
1 50820U 22001T   26161.15546983 -.00000456  00000+0 -10537-4 0  9993
2 50820  53.1644 113.9728 0001473  86.5120 273.6040 15.08828608244365
STARLINK-3346           
1 50821U 22001U   26161.12969167 -.00001373  00000+0 -68215-4 0  9999
2 50821  53.1648 113.9733 0001418  94.3492 265.7661 15.08825407244369
STARLINK-3343           
1 50822U 22001V   26161.14810883 -.00000716  00000+0 -26870-4 0  9993
2 50822  53.1641 114.0061 0001323  92.2297 267.8846 15.08830877244369
STARLINK-3334           
1 50823U 22001W   26161.18122832 -.00000279  00000+0  54750-6 0  9991
2 50823  53.1632 113.8572 0001351  94.0874 266.0272 15.08833903244374
STARLINK-3332           
1 50825U 22001Y   26161.15178443  .00000200  00000+0  30671-4 0  9996
2 50825  53.1617 113.9890 0001337  81.7061 278.4082 15.08831713244360
STARLINK-3329           
1 50827U 22001AA  26161.16282928  .00000790  00000+0  67728-4 0  9990
2 50827  53.1643 113.9414 0001414  82.5679 277.5474 15.08833798244363
STARLINK-3290           
1 50828U 22001AB  26161.14904664 -.00000993  00000+0 -44311-4 0  9997
2 50828  53.1644 113.8949 0000736  95.5425 264.5650 15.08837049244215
STARLINK-3294           
1 50829U 22001AC  26161.17018200  .00000681  00000+0  60874-4 0  9997
2 50829  53.1636 113.9097 0001483  97.7520 262.3639 15.08837392244362
STARLINK-3278           
1 50830U 22001AD  26161.18766148 -.00003226  00000+0 -18470-3 0  9995
2 50830  53.1630 123.8291 0001309  89.9618 270.1523 15.08837865244232
STARLINK-3299           
1 50831U 22001AE  26161.13338897 -.00000372  00000+0 -52887-5 0  9998
2 50831  53.1660 114.1403 0001403  86.4184 273.6968 15.08836272244365
STARLINK-3328           
1 50832U 22001AF  26161.18857061  .00000987  00000+0  80021-4 0  9993
2 50832  53.1725 123.8744 0001394  82.0512 278.0638 15.08863811244237
STARLINK-3331           
1 50834U 22001AH  26161.17294721 -.00000392  00000+0 -65113-5 0  9990
2 50834  53.1657 123.8990 0001367  90.4726 269.6422 15.08833158244223
STARLINK-3310           
1 50835U 22001AJ  26161.15347002  .00020086  00000+0  12247-2 0  9997
2 50835  53.2138 123.9075 0001732  75.6244 284.4941 15.10355388244228
STARLINK-3330           
1 50836U 22001AK  26161.15547509  .00000739  00000+0  64548-4 0  9998
2 50836  53.1652 123.7503 0001299  87.7940 272.3201 15.08835989244129
STARLINK-3318           
1 50837U 22001AL  26161.13706296  .00000234  00000+0  32800-4 0  9993
2 50837  53.1659 114.0544 0001277  89.2640 270.8498 15.08835733244369
STARLINK-3320           
1 50839U 22001AN  26161.15454701  .00000312  00000+0  37680-4 0  9996
2 50839  53.1651 123.9762 0001379  87.9977 272.1173 15.08833598244211
