OBJECT_NAME,OBJECT_ID,EPOCH,MEAN_MOTION,ECCENTRICITY,INCLINATION,RA_OF_ASC_NODE,ARG_OF_PERICENTER,MEAN_ANOMALY,EPHEMERIS_TYPE,CLASSIFICATION_TYPE,NORAD_CAT_ID,ELEMENT_SET_NO,REV_AT_EPOCH,BSTAR,MEAN_MOTION_DOT,MEAN_MOTION_DDOT
TJS-9,2021-135A,2026-06-10T07:05:56.188608,1.00270942,.00046192,0.0533,254.0972,155.1863,93.0710,0,U,50574,999,1636,0,-.281E-5,0
STARLINK-3323,2022-001B,2026-06-10T03:50:29.763744,15.08837611,.00013047,53.1619,103.9507,91.2400,268.8741,0,U,50804,999,24450,.11261183E-4,-.109E-5,0
STARLINK-3333,2022-001C,2026-06-10T03:45:11.833344,15.08833740,.00013795,53.1624,103.9684,82.6427,277.4721,0,U,50805,999,24450,.61750406E-4,.695E-5,0
STARLINK-3335,2022-001D,2026-06-10T03:39:54.024768,15.08842176,.0001251,53.1603,103.9847,84.8422,275.2712,0,U,50806,999,24450,-.94147219E-4,-.1786E-4,0
STARLINK-3355,2022-001F,2026-06-10T03:29:18.134592,15.08805415,.00015473,53.1626,104.0187,88.6657,271.4511,0,U,50808,999,24450,.44784806E-3,.684E-4,0
STARLINK-3232,2022-001G,2026-06-10T03:34:36.273216,15.08831243,.00014121,53.1623,103.9996,81.0022,279.1130,0,U,50809,999,24450,.14998755E-4,-.49E-6,0
STARLINK-3338,2022-001K,2026-06-10T02:36:19.461312,15.08833995,.00013521,53.1645,104.2892,83.5354,276.5792,0,U,50812,999,24449,.6591762E-5,-.183E-5,0
STARLINK-3349,2022-001L,2026-06-09T23:32:25.705248,15.45130686,.00020963,53.2030,48.4023,126.4841,233.6360,0,U,50813,999,24528,.11088279E-2,.53292E-3,0
STARLINK-3324,2022-001M,2026-06-10T04:15:39.989952,15.08836762,.00012989,53.1627,113.8704,79.2740,280.8397,0,U,50814,999,24437,-.9863513E-5,-.445E-5,0
STARLINK-3234,2022-001N,2026-06-10T04:31:34.416192,15.08823282,.00012583,53.1616,113.8204,80.8516,279.2618,0,U,50815,999,24437,.96992349E-4,.1255E-4,0
STARLINK-3342,2022-001P,2026-06-10T03:25:15.608928,15.17323485,.00037247,53.2138,108.3060,85.6230,274.5192,0,U,50816,999,24444,.12205952E-2,.24409E-3,0
STARLINK-3341,2022-001Q,2026-06-10T04:26:17.005056,15.08844511,.00016324,53.1621,113.8335,59.4443,300.6709,0,U,50817,999,24437,.78327312E-4,.959E-5,0
STARLINK-3336,2022-001R,2026-06-10T03:59:46.636800,15.08834111,.00014372,53.1627,113.9243,80.9780,279.1375,0,U,50818,999,24436,-.46709646E-4,-.1031E-4,0
STARLINK-3327,2022-001S,2026-06-10T04:10:21.981792,15.08833656,.00013765,53.1635,113.8918,90.7402,269.3747,0,U,50819,999,24437,.27842476E-4,.155E-5,0
STARLINK-3339,2022-001T,2026-06-10T03:43:52.593312,15.08828608,.00014739,53.1644,113.9728,86.5120,273.6040,0,U,50820,999,24436,-.10537001E-4,-.456E-5,0
STARLINK-3346,2022-001U,2026-06-10T03:06:45.360288,15.08825407,.00014188,53.1648,113.9733,94.3492,265.7661,0,U,50821,999,24436,-.68215066E-4,-.1373E-4,0
STARLINK-3343,2022-001V,2026-06-10T03:33:16.602912,15.08830877,.00013233,53.1641,114.0061,92.2297,267.8846,0,U,50822,999,24436,-.268705E-4,-.716E-5,0
STARLINK-3334,2022-001W,2026-06-10T04:20:58.126848,15.08833903,.00013513,53.1632,113.8572,94.0874,266.0272,0,U,50823,999,24437,.547504E-6,-.279E-5,0
STARLINK-3332,2022-001Y,2026-06-10T03:38:34.174752,15.08831713,.0001337,53.1617,113.9890,81.7061,278.4082,0,U,50825,999,24436,.30671114E-4,.2E-5,0
STARLINK-3329,2022-001AA,2026-06-10T03:54:28.449792,15.08833798,.00014146,53.1643,113.9414,82.5679,277.5474,0,U,50827,999,24436,.67728054E-4,.79E-5,0
STARLINK-3290,2022-001AB,2026-06-10T03:34:37.629696,15.08837049,.00007367,53.1644,113.8949,95.5425,264.5650,0,U,50828,999,24421,-.4431105E-4,-.993E-5,0
STARLINK-3294,2022-001AC,2026-06-10T04:05:03.724800,15.08837392,.00014831,53.1636,113.9097,97.7520,262.3639,0,U,50829,999,24436,.60874319E-4,.681E-5,0
STARLINK-3278,2022-001AD,2026-06-10T04:30:13.951872,15.08837865,.00013099,53.1630,123.8291,89.9618,270.1523,0,U,50830,999,24423,-.18469817E-3,-.3226E-4,0
STARLINK-3299,2022-001AE,2026-06-10T03:12:04.807008,15.08836272,.00014034,53.1660,114.1403,86.4184,273.6968,0,U,50831,999,24436,-.5288737E-5,-.372E-5,0
STARLINK-3328,2022-001AF,2026-06-10T04:31:32.500704,15.08863811,.00013941,53.1725,123.8744,82.0512,278.0638,0,U,50832,999,24423,.8002123E-4,.987E-5,0
STARLINK-3331,2022-001AH,2026-06-10T04:09:02.638944,15.08833158,.0001367,53.1657,123.8990,90.4726,269.6422,0,U,50834,999,24422,-.6511284E-5,-.392E-5,0
STARLINK-3310,2022-001AJ,2026-06-10T03:40:59.809728,15.10355388,.00017321,53.2138,123.9075,75.6244,284.4941,0,U,50835,999,24422,.12247245E-2,.20086E-3,0
STARLINK-3330,2022-001AK,2026-06-10T03:43:53.047776,15.08835989,.00012993,53.1652,123.7503,87.7940,272.3201,0,U,50836,999,24412,.64548234E-4,.739E-5,0
STARLINK-3318,2022-001AL,2026-06-10T03:17:22.239744,15.08835733,.00012777,53.1659,114.0544,89.2640,270.8498,0,U,50837,999,24436,.32800254E-4,.234E-5,0
STARLINK-3320,2022-001AN,2026-06-10T03:42:32.861664,15.08833598,.00013793,53.1651,123.9762,87.9977,272.1173,0,U,50839,999,24421,.37679597E-4,.312E-5,0
